{
  "type": "FeatureCollection",
  "features": [
    {
      "type": "Feature",
      "properties": {
        "norad_id": 41948,
        "name": "CARTOSAT-2D",
        "group": "resource",
        "lat": -26.98899196259826,
        "lon": 55.596642479166874,
        "alt_km": 517.2723324534609,
        "timestamp": "2025-12-20T09:36:01.289170+00:00",
        "meta_object_name": "CARTOSAT-2D",
        "meta_object_id": "2017-008A",
        "meta_epoch": "2025-12-20T04:58:41.273760",
        "meta_mean_motion": 15.19327148,
        "meta_eccentricity": 0.000534,
        "meta_inclination": 97.4386,
        "meta_ra_of_asc_node": 51.5917,
        "meta_arg_of_pericenter": 139.9598,
        "meta_mean_anomaly": 220.2031,
        "meta_ephemeris_type": 0,
        "meta_classification_type": "U",
        "meta_norad_cat_id": 41948,
        "meta_element_set_no": 999,
        "meta_rev_at_epoch": 49040,
        "meta_bstar": 0.0001029,
        "meta_mean_motion_dot": 2.106e-05,
        "meta_mean_motion_ddot": 0,
        "tle_line1": "1 41948U 17008A   25354.20742215  .00002106  00000+0  10290-3 0  9997",
        "tle_line2": "2 41948  97.4386  51.5917 0005340 139.9598 220.2031 15.19327148490407"
      },
      "geometry": {
        "type": "Point",
        "coordinates": [
          55.596642479166874,
          -26.98899196259826
        ]
      }
    },
    {
      "type": "Feature",
      "properties": {
        "norad_id": 42063,
        "name": "SENTINEL-2B",
        "group": "resource",
        "lat": 18.901291858799386,
        "lon": 63.77866691785635,
        "alt_km": 788.9676707576773,
        "timestamp": "2025-12-20T09:36:01.289182+00:00",
        "meta_object_name": "SENTINEL-2B",
        "meta_object_id": "2017-013A",
        "meta_epoch": "2025-12-20T04:28:34.589280",
        "meta_mean_motion": 14.30813362,
        "meta_eccentricity": 0.0001174,
        "meta_inclination": 98.5715,
        "meta_ra_of_asc_node": 66.5284,
        "meta_arg_of_pericenter": 93.726,
        "meta_mean_anomaly": 266.4057,
        "meta_ephemeris_type": 0,
        "meta_classification_type": "U",
        "meta_norad_cat_id": 42063,
        "meta_element_set_no": 999,
        "meta_rev_at_epoch": 45904,
        "meta_bstar": 4.2335e-05,
        "meta_mean_motion_dot": 6.7e-07,
        "meta_mean_motion_ddot": 0,
        "tle_line1": "1 42063U 17013A   25354.18651145  .00000067  00000+0  42335-4 0  9990",
        "tle_line2": "2 42063  98.5715  66.5284 0001174  93.7260 266.4057 14.30813362459046"
      },
      "geometry": {
        "type": "Point",
        "coordinates": [
          63.77866691785635,
          18.901291858799386
        ]
      }
    },
    {
      "type": "Feature",
      "properties": {
        "norad_id": 42767,
        "name": "CARTOSAT-2E",
        "group": "resource",
        "lat": -61.235901433345674,
        "lon": -141.91442014167208,
        "alt_km": 513.9630774076713,
        "timestamp": "2025-12-20T09:36:01.289192+00:00",
        "meta_object_name": "CARTOSAT-2E",
        "meta_object_id": "2017-036C",
        "meta_epoch": "2025-12-20T03:47:45.099168",
        "meta_mean_motion": 15.19267216,
        "meta_eccentricity": 0.0002511,
        "meta_inclination": 97.4555,
        "meta_ra_of_asc_node": 51.6483,
        "meta_arg_of_pericenter": 200.7751,
        "meta_mean_anomaly": 159.3382,
        "meta_ephemeris_type": 0,
        "meta_classification_type": "U",
        "meta_norad_cat_id": 42767,
        "meta_element_set_no": 999,
        "meta_rev_at_epoch": 47096,
        "meta_bstar": 0.00012539,
        "meta_mean_motion_dot": 2.576e-05,
        "meta_mean_motion_ddot": 0,
        "tle_line1": "1 42767U 17036C   25354.15816087  .00002576  00000+0  12539-3 0  9990",
        "tle_line2": "2 42767  97.4555  51.6483 0002511 200.7751 159.3382 15.19267216470968"
      },
      "geometry": {
        "type": "Point",
        "coordinates": [
          -141.91442014167208,
          -61.235901433345674
        ]
      }
    },
    {
      "type": "Feature",
      "properties": {
        "norad_id": 42920,
        "name": "FORMOSAT-5",
        "group": "resource",
        "lat": -33.25878676213445,
        "lon": -116.89120392988146,
        "alt_km": 726.0137623007122,
        "timestamp": "2025-12-20T09:36:01.289203+00:00",
        "meta_object_name": "FORMOSAT-5",
        "meta_object_id": "2017-049A",
        "meta_epoch": "2025-12-20T03:39:08.028000",
        "meta_mean_motion": 14.50764558,
        "meta_eccentricity": 0.0009839,
        "meta_inclination": 98.2445,
        "meta_ra_of_asc_node": 68.3226,
        "meta_arg_of_pericenter": 276.342,
        "meta_mean_anomaly": 83.6654,
        "meta_ephemeris_type": 0,
        "meta_classification_type": "U",
        "meta_norad_cat_id": 42920,
        "meta_element_set_no": 999,
        "meta_rev_at_epoch": 44071,
        "meta_bstar": 4.6909e-05,
        "meta_mean_motion_dot": 1.41e-06,
        "meta_mean_motion_ddot": 0,
        "tle_line1": "1 42920U 17049A   25354.15217625  .00000141  00000+0  46909-4 0  9993",
        "tle_line2": "2 42920  98.2445  68.3226 0009839 276.3420  83.6654 14.50764558440714"
      },
      "geometry": {
        "type": "Point",
        "coordinates": [
          -116.89120392988146,
          -33.25878676213445
        ]
      }
    },
    {
      "type": "Feature",
      "properties": {
        "norad_id": 42969,
        "name": "SENTINEL-5P",
        "group": "resource",
        "lat": 71.92949272761204,
        "lon": 141.18774733783036,
        "alt_km": 819.3176889402812,
        "timestamp": "2025-12-20T09:36:01.289213+00:00",
        "meta_object_name": "SENTINEL-5P",
        "meta_object_id": "2017-064A",
        "meta_epoch": "2025-12-20T02:20:13.365888",
        "meta_mean_motion": 14.19519194,
        "meta_eccentricity": 0.0001016,
        "meta_inclination": 98.7796,
        "meta_ra_of_asc_node": 292.6165,
        "meta_arg_of_pericenter": 90.4056,
        "meta_mean_anomaly": 269.7237,
        "meta_ephemeris_type": 0,
        "meta_classification_type": "U",
        "meta_norad_cat_id": 42969,
        "meta_element_set_no": 999,
        "meta_rev_at_epoch": 42415,
        "meta_bstar": 4.0478e-05,
        "meta_mean_motion_dot": 4.1e-07,
        "meta_mean_motion_ddot": 0,
        "tle_line1": "1 42969U 17064A   25354.09737692  .00000041  00000+0  40478-4 0  9991",
        "tle_line2": "2 42969  98.7796 292.6165 0001016  90.4056 269.7237 14.19519194424157"
      },
      "geometry": {
        "type": "Point",
        "coordinates": [
          141.18774733783036,
          71.92949272761204
        ]
      }
    },
    {
      "type": "Feature",
      "properties": {
        "norad_id": 42987,
        "name": "SKYSAT-C11",
        "group": "resource",
        "lat": 33.672465115679756,
        "lon": -42.93967286263181,
        "alt_km": 420.7494806558698,
        "timestamp": "2025-12-20T09:36:01.289223+00:00",
        "meta_object_name": "SKYSAT-C11",
        "meta_object_id": "2017-068A",
        "meta_epoch": "2025-12-20T02:45:55.725120",
        "meta_mean_motion": 15.47740992,
        "meta_eccentricity": 0.0001158,
        "meta_inclination": 97.4144,
        "meta_ra_of_asc_node": 131.7912,
        "meta_arg_of_pericenter": 100.7649,
        "meta_mean_anomaly": 259.3731,
        "meta_ephemeris_type": 0,
        "meta_classification_type": "U",
        "meta_norad_cat_id": 42987,
        "meta_element_set_no": 999,
        "meta_rev_at_epoch": 45545,
        "meta_bstar": 0.00030942,
        "meta_mean_motion_dot": 0.00015943,
        "meta_mean_motion_ddot": 0,
        "tle_line1": "1 42987U 17068A   25354.11522830  .00015943  00000+0  30942-3 0  9995",
        "tle_line2": "2 42987  97.4144 131.7912 0001158 100.7649 259.3731 15.47740992455458"
      },
      "geometry": {
        "type": "Point",
        "coordinates": [
          -42.93967286263181,
          33.672465115679756
        ]
      }
    },
    {
      "type": "Feature",
      "properties": {
        "norad_id": 42988,
        "name": "SKYSAT-C10",
        "group": "resource",
        "lat": 19.067124583842137,
        "lon": -52.14337145757898,
        "alt_km": 468.7663140459772,
        "timestamp": "2025-12-20T09:36:01.289234+00:00",
        "meta_object_name": "SKYSAT-C10",
        "meta_object_id": "2017-068B",
        "meta_epoch": "2025-12-20T02:37:56.935200",
        "meta_mean_motion": 15.32208744,
        "meta_eccentricity": 0.0005442,
        "meta_inclination": 97.4263,
        "meta_ra_of_asc_node": 124.9815,
        "meta_arg_of_pericenter": 83.4848,
        "meta_mean_anomaly": 276.7013,
        "meta_ephemeris_type": 0,
        "meta_classification_type": "U",
        "meta_norad_cat_id": 42988,
        "meta_element_set_no": 999,
        "meta_rev_at_epoch": 45492,
        "meta_bstar": 0.00024786,
        "meta_mean_motion_dot": 7.632e-05,
        "meta_mean_motion_ddot": 0,
        "tle_line1": "1 42988U 17068B   25354.10968675  .00007632  00000+0  24786-3 0  9991",
        "tle_line2": "2 42988  97.4263 124.9815 0005442  83.4848 276.7013 15.32208744454920"
      },
      "geometry": {
        "type": "Point",
        "coordinates": [
          -52.14337145757898,
          19.067124583842137
        ]
      }
    }
  ]
}